CCSDS_OMM_VERS = 2.0
CREATION_DATE  = 
ORIGINATOR     = 

OBJECT_NAME    = XRISM
OBJECT_ID      = 2023-137A
CENTER_NAME    = EARTH
REF_FRAME      = TEME
TIME_SYSTEM    = UTC
MEAN_ELEMENT_THEORY = SGP/SGP4

EPOCH          = 2026-03-18T13:19:39.481248
MEAN_MOTION    = 15.11597369
ECCENTRICITY   = .0007925
INCLINATION    = 31.0008
RA_OF_ASC_NODE = 226.3134
ARG_OF_PERICENTER = 128.2421
MEAN_ANOMALY   = 231.8932

EPHEMERIS_TYPE = 0
CLASSIFICATION_TYPE = U
NORAD_CAT_ID   = 57800
ELEMENT_SET_NO = 999
REV_AT_EPOCH   = 13913
BSTAR          = .25283E-3
MEAN_MOTION_DOT = .4499E-4
MEAN_MOTION_DDOT = 0

CCSDS_OMM_VERS = 2.0
CREATION_DATE  = 
ORIGINATOR     = 

OBJECT_NAME    = ACS3
OBJECT_ID      = 2024-077B
CENTER_NAME    = EARTH
REF_FRAME      = TEME
TIME_SYSTEM    = UTC
MEAN_ELEMENT_THEORY = SGP/SGP4

EPOCH          = 2026-03-18T08:28:34.644864
MEAN_MOTION    = 13.89975239
ECCENTRICITY   = .006739
INCLINATION    = 97.2025
RA_OF_ASC_NODE = 16.5184
ARG_OF_PERICENTER = 56.2297
MEAN_ANOMALY   = 304.5262

EPHEMERIS_TYPE = 0
CLASSIFICATION_TYPE = U
NORAD_CAT_ID   = 59588
ELEMENT_SET_NO = 999
REV_AT_EPOCH   = 9540
BSTAR          = .95681E-2
MEAN_MOTION_DOT = .11996E-3
MEAN_MOTION_DDOT = 0

CCSDS_OMM_VERS = 2.0
CREATION_DATE  = 
ORIGINATOR     = 

OBJECT_NAME    = SZ-21 MODULE
OBJECT_ID      = 2025-246C
CENTER_NAME    = EARTH
REF_FRAME      = TEME
TIME_SYSTEM    = UTC
MEAN_ELEMENT_THEORY = SGP/SGP4

EPOCH          = 2026-03-18T12:56:49.994592
MEAN_MOTION    = 15.69230343
ECCENTRICITY   = .0000478
INCLINATION    = 41.4738
RA_OF_ASC_NODE = 148.8547
ARG_OF_PERICENTER = 292.1706
MEAN_ANOMALY   = 67.9085

EPHEMERIS_TYPE = 0
CLASSIFICATION_TYPE = U
NORAD_CAT_ID   = 66515
ELEMENT_SET_NO = 999
REV_AT_EPOCH   = 1946
BSTAR          = .24029E-3
MEAN_MOTION_DOT = .28586E-3
MEAN_MOTION_DDOT = 0

