XRISM                   
1 57800U 23137A   26077.55531807  .00004499  00000+0  25283-3 0  9990
2 57800  31.0008 226.3134 0007925 128.2421 231.8932 15.11597369139130
ACS3                    
1 59588U 24077B   26077.35317876  .00011996  00000+0  95681-2 0  9993
2 59588  97.2025  16.5184 0067390  56.2297 304.5262 13.89975239 95409
SZ-21 MODULE            
1 66515U 25246C   26077.53946753  .00028586  00000+0  24029-3 0  9994
2 66515  41.4738 148.8547 0000478 292.1706  67.9085 15.69230343 19466
